[Satellite]
VERSION=1.1
NAME=HST
NICKNAME=HST
TLE1=1 20580U 90037B   18020.43993022  .00000491  00000-0  19169-4 0  9991
TLE2=2 20580  28.4708  11.7463 0002625 356.7372 136.7243 15.08965836323135
